H1 CPF  1  TLE 2023  3  9 12  5681 STPSAT3 
H2  1306401 6666    39380 2023  3  9  0  0  0 2023  3 12  0  0  0   120 1 1  0 0 0
H9
10 0 60013 26160.000000 0 -3910004.000 4934306.000 -1952173.000
10 0 60013 26280.000000 0 -4310052.000 4332699.000 -2470145.000
10 0 60013 26400.000000 0 -4635388.000 3651051.000 -2938525.000
10 0 60013 26520.000000 0 -4880866.000 2901638.000 -3347939.000
10 0 60013 26640.000000 0 -5042702.000 2097988.000 -3690200.000
10 0 60013 26760.000000 0 -5118526.000 1254640.000 -3958466.000
10 0 60013 26880.000000 0 -5107408.000 386878.000 -4147373.000
10 0 60013 27000.000000 0 -5009862.000 -489533.000 -4253137.000
10 0 60013 27120.000000 0 -4827829.000 -1358643.000 -4273626.000
10 0 60013 27240.000000 0 -4564637.000 -2204583.000 -4208402.000
10 0 60013 27360.000000 0 -4224944.000 -3011862.000 -4058735.000
10 0 60013 27480.000000 0 -3814662.000 -3765641.000 -3827577.000
10 0 60013 27600.000000 0 -3340855.000 -4452005.000 -3519510.000
10 0 60013 27720.000000 0 -2811632.000 -5058220.000 -3140666.000
10 0 60013 27840.000000 0 -2236010.000 -5572975.000 -2698604.000
10 0 60013 27960.000000 0 -1623769.000 -5986599.000 -2202173.000
10 0 60013 28080.000000 0 -985294.000 -6291253.000 -1661334.000
10 0 60013 28200.000000 0 -331397.000 -6481089.000 -1086966.000
10 0 60013 28320.000000 0 326857.000 -6552373.000 -490645.000
10 0 60013 28440.000000 0 978349.000 -6503565.000 115588.000
10 0 60013 28560.000000 0 1612081.000 -6335362.000 719479.000
10 0 60013 28680.000000 0 2217375.000 -6050691.000 1308809.000
10 0 60013 28800.000000 0 2784051.000 -5654660.000 1871647.000
10 0 60013 28920.000000 0 3302601.000 -5154460.000 2396602.000
10 0 60013 29040.000000 0 3764349.000 -4559236.000 2873051.000
10 0 60013 29160.000000 0 4161594.000 -3879906.000 3291363.000
10 0 60013 29280.000000 0 4487737.000 -3128955.000 3643091.000
10 0 60013 29400.000000 0 4737388.000 -2320201.000 3921144.000
10 0 60013 29520.000000 0 4906447.000 -1468529.000 4119927.000
10 0 60013 29640.000000 0 4992170.000 -589615.000 4235451.000
10 0 60013 29760.000000 0 4993204.000 300367.000 4265412.000
10 0 60013 29880.000000 0 4909611.000 1185046.000 4209229.000
10 0 60013 30000.000000 0 4742859.000 2048150.000 4068062.000
10 0 60013 30120.000000 0 4495798.000 2873813.000 3844778.000
10 0 60013 30240.000000 0 4172608.000 3646861.000 3543899.000
10 0 60013 30360.000000 0 3778738.000 4353096.000 3171510.000
10 0 60013 30480.000000 0 3320811.000 4979556.000 2735135.000
10 0 60013 30600.000000 0 2806516.000 5514759.000 2243586.000
10 0 60013 30720.000000 0 2244487.000 5948914.000 1706789.000
10 0 60013 30840.000000 0 1644155.000 6274106.000 1135577.000
10 0 60013 30960.000000 0 1015593.000 6484441.000 541477.000
10 0 60013 31080.000000 0 369351.000 6576156.000 -63532.000
10 0 60013 31200.000000 0 -283723.000 6547688.000 -667260.000
10 0 60013 31320.000000 0 -932666.000 6399691.000 -1257554.000
10 0 60013 31440.000000 0 -1566578.000 6135026.000 -1822541.000
10 0 60013 31560.000000 0 -2174807.000 5758693.000 -2350874.000
10 0 60013 31680.000000 0 -2747119.000 5277733.000 -2831954.000
10 0 60013 31800.000000 0 -3273871.000 4701087.000 -3256139.000
10 0 60013 31920.000000 0 -3746164.000 4039429.000 -3614938.000
10 0 60013 32040.000000 0 -4155986.000 3304960.000 -3901171.000
10 0 60013 32160.000000 0 -4496342.000 2511182.000 -4109111.000
10 0 60013 32280.000000 0 -4761366.000 1672654.000 -4234591.000
10 0 60013 32400.000000 0 -4946416.000 804727.000 -4275085.000
10 0 60013 32520.000000 0 -5048154.000 -76732.000 -4229760.000
10 0 60013 32640.000000 0 -5064606.000 -955626.000 -4099489.000
10 0 60013 32760.000000 0 -4995198.000 -1815908.000 -3886841.000
10 0 60013 32880.000000 0 -4840782.000 -2641879.000 -3596034.000
10 0 60013 33000.000000 0 -4603630.000 -3418465.000 -3232856.000
10 0 60013 33120.000000 0 -4287410.000 -4131498.000 -2804558.000
10 0 60013 33240.000000 0 -3897144.000 -4767975.000 -2319716.000
10 0 60013 33360.000000 0 -3439133.000 -5316301.000 -1788062.000
10 0 60013 33480.000000 0 -2920867.000 -5766510.000 -1220296.000
10 0 60013 33600.000000 0 -2350910.000 -6110459.000 -627865.000
10 0 60013 33720.000000 0 -1738758.000 -6341977.000 -22738.000
10 0 60013 33840.000000 0 -1094688.000 -6456991.000 582843.000
10 0 60013 33960.000000 0 -429585.000 -6453600.000 1176618.000
10 0 60013 34080.000000 0 245245.000 -6332107.000 1746557.000
10 0 60013 34200.000000 0 918274.000 -6095014.000 2281113.000
10 0 60013 34320.000000 0 1577944.000 -5746961.000 2769458.000
10 0 60013 34440.000000 0 2212870.000 -5294634.000 3201710.000
10 0 60013 34560.000000 0 2812041.000 -4746629.000 3569130.000
10 0 60013 34680.000000 0 3365009.000 -4113278.000 3864300.000
10 0 60013 34800.000000 0 3862070.000 -3406448.000 4081271.000
10 0 60013 34920.000000 0 4294431.000 -2639314.000 4215683.000
10 0 60013 35040.000000 0 4654367.000 -1826105.000 4264845.000
10 0 60013 35160.000000 0 4935350.000 -981841.000 4227789.000
10 0 60013 35280.000000 0 5132175.000 -122050.000 4105286.000
10 0 60013 35400.000000 0 5241046.000 737513.000 3899830.000
10 0 60013 35520.000000 0 5259658.000 1581164.000 3615588.000
10 0 60013 35640.000000 0 5187240.000 2393564.000 3258313.000
10 0 60013 35760.000000 0 5024584.000 3160007.000 2835230.000
10 0 60013 35880.000000 0 4774043.000 3866688.000 2354894.000
10 0 60013 36000.000000 0 4439502.000 4500950.000 1827013.000
10 0 60013 36120.000000 0 4026323.000 5051515.000 1262252.000
10 0 60013 36240.000000 0 3541262.000 5508691.000 672019.000
10 0 60013 36360.000000 0 2992362.000 5864537.000 68230.000
10 0 60013 36480.000000 0 2388819.000 6113009.000 -536932.000
10 0 60013 36600.000000 0 1740830.000 6250053.000 -1131270.000
10 0 60013 36720.000000 0 1059418.000 6273672.000 -1702816.000
10 0 60013 36840.000000 0 356244.000 6183946.000 -2240073.000
10 0 60013 36960.000000 0 -356589.000 5983010.000 -2732248.000
10 0 60013 37080.000000 0 -1066750.000 5675007.000 -3169466.000
10 0 60013 37200.000000 0 -1761882.000 5265988.000 -3542962.000
10 0 60013 37320.000000 0 -2429817.000 4763789.000 -3845255.000
10 0 60013 37440.000000 0 -3058786.000 4177882.000 -4070290.000
10 0 60013 37560.000000 0 -3637614.000 3519187.000 -4213556.000
10 0 60013 37680.000000 0 -4155918.000 2799877.000 -4272172.000
10 0 60013 37800.000000 0 -4604284.000 2033150.000 -4244942.000
10 0 60013 37920.000000 0 -4974437.000 1232996.000 -4132383.000
10 0 60013 38040.000000 0 -5259391.000 413947.000 -3936711.000
10 0 60013 38160.000000 0 -5453583.000 -409181.000 -3661810.000
10 0 60013 38280.000000 0 -5552988.000 -1221551.000 -3313154.000
10 0 60013 38400.000000 0 -5555202.000 -2008570.000 -2897707.000
10 0 60013 38520.000000 0 -5459513.000 -2756149.000 -2423792.000
10 0 60013 38640.000000 0 -5266930.000 -3450959.000 -1900928.000
10 0 60013 38760.000000 0 -4980192.000 -4080673.000 -1339641.000
10 0 60013 38880.000000 0 -4603738.000 -4634187.000 -751255.000
10 0 60013 39000.000000 0 -4143650.000 -5101833.000 -147665.000
10 0 60013 39120.000000 0 -3607558.000 -5475542.000 458910.000
10 0 60013 39240.000000 0 -3004518.000 -5749000.000 1056181.000
10 0 60013 39360.000000 0 -2344858.000 -5917749.000 1632035.000
10 0 60013 39480.000000 0 -1639999.000 -5979269.000 2174796.000
10 0 60013 39600.000000 0 -902254.000 -5933003.000 2673458.000
10 0 60013 39720.000000 0 -144608.000 -5780359.000 3117918.000
10 0 60013 39840.000000 0 619515.000 -5524669.000 3499180.000
10 0 60013 39960.000000 0 1376496.000 -5171104.000 3809536.000
10 0 60013 40080.000000 0 2112762.000 -4726571.000 4042723.000
10 0 60013 40200.000000 0 2815033.000 -4199566.000 4194046.000
10 0 60013 40320.000000 0 3470561.000 -3600008.000 4260468.000
10 0 60013 40440.000000 0 4067358.000 -2939051.000 4240670.000
10 0 60013 40560.000000 0 4594420.000 -2228871.000 4135074.000
10 0 60013 40680.000000 0 5041923.000 -1482440.000 3945837.000
10 0 60013 40800.000000 0 5401411.000 -713292.000 3676797.000
10 0 60013 40920.000000 0 5665956.000 64719.000 3333408.000
10 0 60013 41040.000000 0 5830291.000 837679.000 2922622.000
10 0 60013 41160.000000 0 5890924.000 1591852.000 2452751.000
10 0 60013 41280.000000 0 5846210.000 2313927.000 1933303.000
10 0 60013 41400.000000 0 5696396.000 2991258.000 1374785.000
10 0 60013 41520.000000 0 5443632.000 3612086.000 788491.000
10 0 60013 41640.000000 0 5091943.000 4165740.000 186273.000
10 0 60013 41760.000000 0 4647165.000 4642826.000 -419704.000
10 0 60013 41880.000000 0 4116850.000 5035380.000 -1017210.000
10 0 60013 42000.000000 0 3510134.000 5337002.000 -1594194.000
10 0 60013 42120.000000 0 2837578.000 5542952.000 -2139037.000
10 0 60013 42240.000000 0 2110980.000 5650217.000 -2640777.000
10 0 60013 42360.000000 0 1343165.000 5657543.000 -3089332.000
10 0 60013 42480.000000 0 547760.000 5565443.000 -3475701.000
10 0 60013 42600.000000 0 -261049.000 5376161.000 -3792133.000
10 0 60013 42720.000000 0 -1068770.000 5093621.000 -4032285.000
10 0 60013 42840.000000 0 -1860851.000 4723336.000 -4191340.000
10 0 60013 42960.000000 0 -2622946.000 4272304.000 -4266099.000
10 0 60013 43080.000000 0 -3341165.000 3748874.000 -4255044.000
10 0 60013 43200.000000 0 -4002320.000 3162596.000 -4158370.000
10 0 60013 43320.000000 0 -4594165.000 2524048.000 -3977981.000
10 0 60013 43440.000000 0 -5105623.000 1844656.000 -3717458.000
10 0 60013 43560.000000 0 -5526991.000 1136493.000 -3381991.000
10 0 60013 43680.000000 0 -5850131.000 412073.000 -2978286.000
10 0 60013 43800.000000 0 -6068636.000 -315869.000 -2514436.000
10 0 60013 43920.000000 0 -6177961.000 -1034597.000 -1999762.000
10 0 60013 44040.000000 0 -6175530.000 -1731595.000 -1444634.000
10 0 60013 44160.000000 0 -6060804.000 -2394790.000 -860258.000
10 0 60013 44280.000000 0 -5835312.000 -3012759.000 -258455.000
10 0 60013 44400.000000 0 -5502638.000 -3574936.000 348582.000
10 0 60013 44520.000000 0 -5068372.000 -4071794.000 948543.000
10 0 60013 44640.000000 0 -4540014.000 -4495010.000 1529253.000
10 0 60013 44760.000000 0 -3926850.000 -4837604.000 2078922.000
99